COMMENT,ORIGINATOR,NORAD_CAT_ID,OBJECT_NAME,OBJECT_TYPE,CLASSIFICATION_TYPE,INTLDES,EPOCH,EPOCH_MICROSECONDS,MEAN_MOTION,ECCENTRICITY,INCLINATION,RA_OF_ASC_NODE,ARG_OF_PERICENTER,MEAN_ANOMALY,EPHEMERIS_TYPE,ELEMENT_SET_NO,REV_AT_EPOCH,BSTAR,MEAN_MOTION_DOT,MEAN_MOTION_DDOT,FILE,TLE_LINE0,TLE_LINE1,TLE_LINE2,OBJECT_ID,OBJECT_NUMBER,SEMIMAJOR_AXIS,PERIOD,APOGEE,PERIGEE
"GENERATED VIA SPACETRACK.ORG API","JSPOC","40360","RESURS P2","PAYLOAD","U","14087A","2016-01-11 05:39:50","215104","15.32477978","0.0011867","97.2867","107.6307","72.609","339.4791","0","999","5831","6.2109e-05","1.874e-05","0","1978756","0 RESURS P2","1 40360U 14087A   16011.23599786  .00001874  00000-0  62109-4 0  9993","2 40360  97.2867 107.6307 0011867  72.6090 339.4791 15.32477978 58311","2014-087A","40360","6846.558","93.965","476.548","460.299"
"GENERATED VIA SPACETRACK.ORG API","JSPOC","39510","ARIANE 5 R/B","ROCKET BODY","U","14006C","2016-01-11 05:39:53","673696","2.31237966","0.7238849","6.536","346.5235","44.7331","354.6735","0","999","1616","0.0002061","3.55e-06","0","1978976","0 ARIANE 5 R/B","1 39510U 14006C   16011.23603789  .00000355  00000-0  20610-3 0  9991","2 39510   6.5360 346.5235 7238849  44.7331 354.6735  2.31237966 16167","2014-006C","39510","24156.225","622.735","35264.417","291.763"
"GENERATED VIA SPACETRACK.ORG API","JSPOC","39510","ARIANE 5 R/B","ROCKET BODY","U","14006C","2016-01-11 05:39:53","649504","2.31238066","0.7238866","6.5359","346.5218","44.7338","354.6742","0","999","1589","0.00020949","3.61e-06","0","1979502","0 ARIANE 5 R/B","1 39510U 14006C   16011.23603761 +.00000361 +00000-0 +20949-3 0  9993","2 39510 006.5359 346.5218 7238866 044.7338 354.6742 02.31238066015891","2014-006C","39510","24156.218","622.734","35264.446","291.720"
"GENERATED VIA SPACETRACK.ORG API","JSPOC","17291","SL-14 R/B","ROCKET BODY","U","87001B","2016-01-11 05:40:40","189728","13.84556823","0.0012509","82.4689","281.1595","71.2624","40.2655","0","999","46630","2.5012e-05","4.3e-07","0","1978806","0 SL-14 R/B","1 17291U 87001B   16011.23657627  .00000043  00000-0  25012-4 0  9994","2 17291  82.4689 281.1595 0012509  71.2624  40.2655 13.84556823466305","1987-001B","17291","7325.905","104.004","956.934","938.606"
"GENERATED VIA SPACETRACK.ORG API","JSPOC","21228","DELTA 2 R/B","ROCKET BODY","U","91028B","2016-01-11 05:40:59","518272","12.53214856","0.1143699","23.9979","297.8622","203.7001","322.2105","0","999","13212","1.5656e-05","2.11e-06","0","1978949","0 DELTA 2 R/B","1 21228U 91028B   16011.23679998  .00000211  00000-0  15656-4 0  9998","2 21228  23.9979 297.8622 1143699 203.7001 322.2105 12.53214856132129","1991-028B","21228","7829.213","114.904","2346.505","555.652"
"GENERATED VIA SPACETRACK.ORG API","JSPOC","40905","OBJECT G","TBA","U","15049G","2016-01-11 05:41:03","153120","15.12403798","0.0015176","97.4488","21.6456","217.3473","203.1279","0","999","1712","9.3425e-05","1.561e-05","0","1978789","0 OBJECT G","1 40905U 15049G   16011.23684205  .00001561  00000-0  93425-4 0  9996","2 40905  97.4488  21.6456 0015176 217.3473 203.1279 15.12403798 17126","2015-049G","40905","6907.008","95.212","539.355","518.391"
"GENERATED VIA SPACETRACK.ORG API","JSPOC","40261","SJ-11-07","PAYLOAD","U","14059A","2016-01-11 05:41:06","181440","14.60507536","0.001284","98.0954","99.1508","183.9244","176.1864","0","999","6858","5.0657e-05","2e-06","0","1978808","0 SJ-11-07","1 40261U 14059A   16011.23687710  .00000200  00000-0  50657-4 0  9994","2 40261  98.0954  99.1508 0012840 183.9244 176.1864 14.60507536 68585","2014-059A","40261","7069.672","98.595","700.615","682.460"
"GENERATED VIA SPACETRACK.ORG API","JSPOC","6267","COSMOS 532","PAYLOAD","U","72087E","2016-01-11 05:41:06","933984","12.6967261","0.0108338","74.0369","307.4037","331.5063","139.2028","0","999","209","5.0666e-05","-7e-08","0","1978860","0 COSMOS 532","1 06267U 72087E   16011.23688581 -.00000007  00000-0  50666-4 0  9990","2 06267  74.0369 307.4037 0108338 331.5063 139.2028 12.69672610  2096","1972-087E","6267","7761.410","113.415","1467.361","1299.190"
"GENERATED VIA SPACETRACK.ORG API","JSPOC","23190","SL-8 R/B","ROCKET BODY","U","94045B","2016-01-11 05:41:12","670944","13.74040612","0.001971","74.028","249.1959","325.7108","34.2738","0","999","7539","9.9965e-05","7.1e-07","0","1978893","0 SL-8 R/B","1 23190U 94045B   16011.23695221  .00000071  00000-0  99965-4 0  9996","2 23190  74.0280 249.1959 0019710 325.7108  34.2738 13.74040612 75390","1994-045B","23190","7363.237","104.800","999.615","970.589"
"GENERATED VIA SPACETRACK.ORG API","JSPOC","11080","NIMBUS 7","PAYLOAD","U","78098A","2016-01-11 05:41:25","192032","13.84267038","0.0008083","99.4091","134.5841","262.0327","157.6957","0","999","87978","3.841e-05","-2e-08","0","1978774","0 NIMBUS 7","1 11080U 78098A   16011.23709713 -.00000002  00000-0  38410-4 0  9996","2 11080  99.4091 134.5841 0008083 262.0327 157.6957 13.84267038879782","1978-098A","11080","7326.927","104.026","954.715","942.870"
"GENERATED VIA SPACETRACK.ORG API","JSPOC","10142","SL-8 R/B","ROCKET BODY","U","77064B","2016-01-11 05:41:26","747232","13.78581244","0.0043245","82.9645","47.3076","107.3168","323.1846","0","999","93601","8.4235e-05","1.02e-06","0","1978814","0 SL-8 R/B","1 10142U 77064B   16011.23711513  .00000102  00000-0  84235-4 0  9993","2 10142  82.9645  47.3076 0043245 107.3168 323.1846 13.78581244936014","1977-064B","10142","7347.060","104.455","1000.697","937.152"
"GENERATED VIA SPACETRACK.ORG API","JSPOC","40302","TSUBAME","PAYLOAD","U","14070E","2016-01-11 05:41:26","93184","15.14433274","0.0042525","97.4314","90.4497","136.8979","289.7509","0","999","6514","0.00015439","2.833e-05","0","1978855","0 TSUBAME","1 40302U 14070E   16011.23710756  .00002833  00000-0  15439-3 0  9992","2 40302  97.4314  90.4497 0042525 136.8979 289.7509 15.14433274 65143","2014-070E","40302","6900.836","95.085","552.047","493.355"
"GENERATED VIA SPACETRACK.ORG API","JSPOC","18421","COSMOS 1892","PAYLOAD","U","87088A","2016-01-11 05:41:27","536928","15.14644875","0.0014441","82.501","73.8072","282.5159","77.4457","0","999","53941","0.00011825","2.22e-05","0","1978962","0 COSMOS 1892","1 18421U 87088A   16011.23712427  .00002220  00000-0  11825-3 0  9990","2 18421  82.5010  73.8072 0014441 282.5159  77.4457 15.14644875539418","1987-088A","18421","6900.193","95.071","532.023","512.094"
"GENERATED VIA SPACETRACK.ORG API","JSPOC","26096","ARIANE 44LP R/B","ROCKET BODY","U","00012B","2016-01-11 05:41:46","479264","2.47878935","0.7100103","5.2169","22.5156","42.4362","354.7265","0","999","13624","0.00078417","1.344e-05","0","1979502","0 ARIANE 44LP R/B","1 26096U 00012B   16011.23734351 +.00001344 +00000-0 +78417-3 0  9995","2 26096 005.2169 022.5156 7100103 042.4362 354.7265 02.47878935136243","2000-012B","26096","23062.626","580.928","33059.193","309.789"
"GENERATED VIA SPACETRACK.ORG API","JSPOC","36591","CZ-3C R/B","ROCKET BODY","U","10024B","2016-01-11 05:42:25","896672","4.04787087","0.6042132","20.7305","5.2276","183.6679","168.3098","0","999","6397","0.00072139","0.00019248","0","1978992","0 CZ-3C R/B","1 36591U 10024B   16011.23779973  .00019248  00000-0  72139-3 0  9996","2 36591  20.7305   5.2276 6042132 183.6679 168.3098  4.04787087 63978","2010-024B","36591","16630.963","355.742","20301.476","204.180"
"GENERATED VIA SPACETRACK.ORG API","JSPOC","36110","YAOGAN 7","PAYLOAD","U","09069A","2016-01-11 05:42:47","389536","14.75235846","0.0024334","98.141","158.4164","348.2339","11.8324","0","999","32778","-5.9164e-05","-4.56e-06","0","1978862","0 YAOGAN 7","1 36110U 09069A   16011.23804849 -.00000456  00000-0 -59164-4 0  9998","2 36110  98.1410 158.4164 0024334 348.2339  11.8324 14.75235846327784","2009-069A","36110","7022.539","97.611","661.493","627.316"
"GENERATED VIA SPACETRACK.ORG API","JSPOC","6256","METEOR 1-13","PAYLOAD","U","72085A","2016-01-11 05:42:59","860512","14.08818461","0.0027133","81.2717","243.5328","146.4675","213.822","0","999","21898","7.5733e-05","1.44e-06","0","1978887","0 METEOR 1-13","1 06256U 72085A   16011.23819283  .00000144  00000-0  75733-4 0  9994","2 06256  81.2717 243.5328 0027133 146.4675 213.8220 14.08818461218980","1972-085A","6256","7241.554","102.213","883.068","843.771"
"GENERATED VIA SPACETRACK.ORG API","JSPOC","7594","SL-8 R/B","ROCKET BODY","U","74105B","2016-01-11 05:43:03","657792","13.78812439","0.0017156","82.9495","317.6038","29.475","79.7702","0","999","6410","6.2175e-05","7.9e-07","0","1978790","0 SL-8 R/B","1 07594U 74105B   16011.23823678  .00000079  00000-0  62175-4 0  9991","2 07594  82.9495 317.6038 0017156  29.4750  79.7702 13.78812439 64108","1974-105B","7594","7346.238","104.437","980.707","955.500"
"GENERATED VIA SPACETRACK.ORG API","JSPOC","33314","RAPIDEYE 1","PAYLOAD","U","08040C","2016-01-11 05:43:10","709760","14.79965648","0.0022563","97.8585","98.2564","263.5258","96.3391","0","999","39801","3.5847e-05","2.19e-06","0","1978843","0 RAPIDEYE 1","1 33314U 08040C   16011.23831840  .00000219  00000-0  35847-4 0  9997","2 33314  97.8585  98.2564 0022563 263.5258  96.3391 14.79965648398012","2008-040C","33314","7007.569","97.299","645.245","613.623"
"GENERATED VIA SPACETRACK.ORG API","JSPOC","40146","OPTUS 10","PAYLOAD","U","14054A","2016-01-11 05:43:23","704320","1.00269307","0.0001103","0.0898","355.9776","301.8589","62.1456","0","999","492","0","-7.4e-07","0","1979211","0 OPTUS 10","1 40146U 14054A   16011.23846880 -.00000074  00000-0  00000+0 0  9998","2 40146   0.0898 355.9776 0001103 301.8589  62.1456  1.00269307  4920","2014-054A","40146","42165.426","1436.132","35791.942","35782.640"
